NORAD_CAT_ID,OBJECT_NAME,OBJECT_TYPE,EPOCH,MEAN_MOTION,ECCENTRICITY,INCLINATION,RA_OF_ASC_NODE,ARG_OF_PERICENTER,MEAN_ANOMALY,BSTAR,MEAN_MOTION_DOT,MEAN_MOTION_DDOT,TLE_LINE0,TLE_LINE1,TLE_LINE2,SEMIMAJOR_AXIS,PERIOD,APOGEE,PERIGEE,DECAYED
55766.0,STARLINK-5599,PAYLOAD,2023-04-16 21:47:16,15.69917876,0.0003713,69.999,31.0698,264.7987,95.2785,-3.7946e-06,-6.69e-06,0.0,0 STARLINK-5599,1 55766U 23028AB  23106.90782990 -.00000669  00000-0 -37946-5 0  9997,2 55766  69.9990  31.0698 0003713 264.7987  95.2785 15.69917876  7605,6737.269,91.725,361.636,356.632,0.0
55766.0,STARLINK-5599,PAYLOAD,2023-04-17 03:54:16,15.6993012,0.0003169,70.0007,30.3551,256.1594,103.9249,7.9157e-06,7.39e-06,0.0,0 STARLINK-5599,1 55766U 23028AB  23107.16268746  .00000739  00000-0  79157-5 0  9990,2 55766  70.0007  30.3551 0003169 256.1594 103.9249 15.69930120  7633,6737.234,91.724,361.234,356.964,0.0
55766.0,STARLINK-5599,PAYLOAD,2023-04-17 20:43:33,15.69922638,0.0002899,70.0017,28.3844,253.4165,106.6712,1.082e-05,1.089e-05,0.0,0 STARLINK-5599,1 55766U 23028AB  23107.86357662  .00001089  00000-0  10820-4 0  9993,2 55766  70.0017  28.3844 0002899 253.4165 106.6712 15.69922638  7741,6737.255,91.724,361.073,357.167,0.0
55766.0,STARLINK-5599,PAYLOAD,2023-04-18 04:22:18,15.69922669,0.0003603,69.9998,27.4896,264.4899,95.5886,1.9481e-05,2.13e-05,0.0,0 STARLINK-5599,1 55766U 23028AB  23108.18215963  .00002130  00000-0  19481-4 0  9996,2 55766  69.9998  27.4896 0003603 264.4899  95.5886 15.69922669  7802,6737.255,91.724,361.548,356.693,0.0
55766.0,STARLINK-5599,PAYLOAD,2023-04-18 18:08:05,15.69918164,0.0003339,70.0004,25.8786,263.0917,96.9898,8.0554e-06,7.56e-06,0.0,0 STARLINK-5599,1 55766U 23028AB  23108.75561615  .00000756  00000-0  80554-5 0  9999,2 55766  70.0004  25.8786 0003339 263.0917  96.9898 15.69918164  7897,6737.268,91.725,361.383,356.884,0.0
55766.0,STARLINK-5599,PAYLOAD,2023-04-19 04:50:19,15.69933623,0.000295,70.0021,24.6238,251.5765,108.511,2.4699e-05,2.759e-05,0.0,0 STARLINK-5599,1 55766U 23028AB  23109.20161977  .00002759  00000-0  24699-4 0  9999,2 55766  70.0021  24.6238 0002950 251.5765 108.5110 15.69933623  7957,6737.224,91.724,361.076,357.101,0.0
55766.0,STARLINK-5599,PAYLOAD,2023-04-20 03:46:37,15.69933431,0.0003459,69.9996,21.9348,262.3126,97.7677,1.2105e-05,1.243e-05,0.0,0 STARLINK-5599,1 55766U 23028AB  23110.15737374  .00001243  00000-0  12105-4 0  9991,2 55766  69.9996  21.9348 0003459 262.3126  97.7677 15.69933431  8105,6737.224,91.724,361.42,356.759,0.0
55766.0,STARLINK-5599,PAYLOAD,2023-04-21 02:42:53,15.69942257,0.0003244,70.0001,19.2477,239.0882,120.9995,6.0999e-06,5.21e-06,0.0,0 STARLINK-5599,1 55766U 23028AB  23111.11311936  .00000521  00000-0  60999-5 0  9993,2 55766  70.0001  19.2477 0003244 239.0882 120.9995 15.69942257  8265,6737.199,91.723,361.25,356.879,0.0
55766.0,STARLINK-5599,PAYLOAD,2023-04-22 00:07:25,15.69930833,0.0003594,69.9998,16.7394,266.1513,93.9272,4.0075e-06,2.69e-06,0.0,0 STARLINK-5599,1 55766U 23028AB  23112.00515937  .00000269  00000-0  40075-5 0  9991,2 55766  69.9998  16.7394 0003594 266.1513  93.9272 15.69930833  8407,6737.232,91.724,361.518,356.676,0.0
55766.0,STARLINK-5599,PAYLOAD,2023-04-22 16:56:43,15.69925729,0.0003548,69.9976,14.7682,266.4902,93.5888,-1.8377e-05,-2.422e-05,0.0,0 STARLINK-5599,1 55766U 23028AB  23112.70605376 -.00002422  00000-0 -18377-4 0  9999,2 55766  69.9976  14.7682 0003548 266.4902  93.5888 15.69925729  8503,6737.246,91.724,361.502,356.721,0.0
55766.0,STARLINK-5599,PAYLOAD,2023-04-23 02:07:13,15.69928518,0.0003372,69.9976,13.6929,266.0136,94.0674,-1.0411e-05,-1.465e-05,0.0,0 STARLINK-5599,1 55766U 23028AB  23113.08835019 -.00001465  00000-0 -10411-4 0  9997,2 55766  69.9976  13.6929 0003372 266.0136  94.0674 15.69928518  8570,6737.239,91.724,361.375,356.832,0.0
55766.0,STARLINK-5599,PAYLOAD,2023-04-23 17:24:44,15.69929642,0.0003468,69.9994,11.9044,263.8297,96.2503,1.3183e-05,1.373e-05,0.0,0 STARLINK-5599,1 55766U 23028AB  23113.72551067  .00001373  00000-0  13183-4 0  9991,2 55766  69.9994  11.9044 0003468 263.8297  96.2503 15.69929642  8673,6737.235,91.724,361.437,356.764,0.0
55766.0,STARLINK-5599,PAYLOAD,2023-04-24 02:35:14,15.69939703,0.0003394,69.9998,10.827,265.5154,94.5654,1.8126e-05,1.969e-05,0.0,0 STARLINK-5599,1 55766U 23028AB  23114.10780197  .00001969  00000-0  18126-4 0  9995,2 55766  69.9998  10.8270 0003394 265.5154  94.5654 15.69939703  8728,6737.207,91.723,361.358,356.785,0.0
55766.0,STARLINK-5599,PAYLOAD,2023-04-24 16:21:00,15.69928837,0.0003357,69.9991,9.2158,267.1843,92.8969,2.6372e-05,2.96e-05,0.0,0 STARLINK-5599,1 55766U 23028AB  23114.68125732  .00002960  00000-0  26372-4 0  9990,2 55766  69.9991   9.2158 0003357 267.1843  92.8969 15.69928837  8816,6737.238,91.724,361.364,356.841,0.0
55766.0,STARLINK-5599,PAYLOAD,2023-04-25 03:03:19,15.69889973,0.0003157,69.9977,7.961,258.0276,102.0566,-2.3947e-05,-3.087e-05,0.0,0 STARLINK-5599,1 55766U 23028AB  23115.12731169 -.00003087  00000-0 -23947-4 0  9995,2 55766  69.9977   7.9610 0003157 258.0276 102.0566 15.69889973  8886,6737.349,91.726,361.341,357.087,0.0
55766.0,STARLINK-5599,PAYLOAD,2023-04-26 01:59:35,15.6992277,0.0002902,69.9988,5.2768,265.3396,94.7468,-9.8804e-06,-1.4e-05,0.0,0 STARLINK-5599,1 55766U 23028AB  23116.08304738 -.00001400  00000-0 -98804-5 0  9991,2 55766  69.9988   5.2768 0002902 265.3396  94.7468 15.69922770  9044,6737.255,91.724,361.075,357.165,0.0
55766.0,STARLINK-5599,PAYLOAD,2023-04-26 23:24:05,15.69927403,0.000244,69.9993,2.7678,250.5817,109.5115,7.2807e-05,8.551e-05,0.0,0 STARLINK-5599,1 55766U 23028AB  23116.97506268  .00008551  00000-0  72807-4 0  9997,2 55766  69.9993   2.7678 0002440 250.5817 109.5115 15.69927403  9179,6737.242,91.724,360.751,357.463,0.0
55766.0,STARLINK-5599,PAYLOAD,2023-04-27 02:27:36,15.69921165,0.0002881,69.9985,2.4084,252.6211,107.467,6.2381e-05,7.293e-05,0.0,0 STARLINK-5599,1 55766U 23028AB  23117.10250177  .00007293  00000-0  62381-4 0  9996,2 55766  69.9985   2.4084 0002881 252.6211 107.4670 15.69921165  9192,6737.26,91.724,361.066,357.184,0.0
55766.0,STARLINK-5599,PAYLOAD,2023-04-27 16:13:23,15.69925492,0.000256,70.0005,0.797,258.6191,101.4717,4.9587e-06,3.84e-06,0.0,0 STARLINK-5599,1 55766U 23028AB  23117.67596424  .00000384  00000-0  49587-5 0  9994,2 55766  70.0005   0.7970 0002560 258.6191 101.4717 15.69925492  9283,6737.247,91.724,360.837,357.387,0.0
55766.0,STARLINK-5599,PAYLOAD,2023-04-28 01:23:56,15.69892063,0.0002857,69.9983,359.7213,275.0688,85.0182,-5.9571e-05,-7.359e-05,0.0,0 STARLINK-5599,1 55766U 23028AB  23118.05828828 -.00007359  00000-0 -59571-4 0  9997,2 55766  69.9983 359.7213 0002857 275.0688  85.0182 15.69892063  9342,6737.343,91.726,361.133,357.283,0.0
55766.0,STARLINK-5599,PAYLOAD,2023-04-28 09:02:41,15.69891751,0.000278,69.9995,358.825,264.627,95.4608,-5.452e-05,-6.753e-05,0.0,0 STARLINK-5599,1 55766U 23028AB  23118.37687485 -.00006753  00000-0 -54520-4 0  9990,2 55766  69.9995 358.8250 0002780 264.6270  95.4608 15.69891751  9400,6737.344,91.726,361.082,357.336,0.0
55766.0,STARLINK-5599,PAYLOAD,2023-04-29 01:51:53,15.69941766,0.0005289,69.9983,356.8568,235.8827,124.1868,1.1714e-05,1.196e-05,0.0,0 STARLINK-5599,1 55766U 23028AB  23119.07770645  .00001196  00000-0  11714-4 0  9991,2 55766  69.9983 356.8568 0005289 235.8827 124.1868 15.69941766  9503,6737.201,91.723,362.629,355.502,0.0
55766.0,STARLINK-5599,PAYLOAD,2023-04-29 17:09:26,15.6989273,0.000331,69.9985,355.0647,267.0771,93.0046,9.2283e-05,0.00010883,0.0,0 STARLINK-5599,1 55766U 23028AB  23119.71489227  .00010883  00000-0  92283-4 0  9998,2 55766  69.9985 355.0647 0003310 267.0771  93.0046 15.69892730  9601,6737.341,91.726,361.436,356.976,0.0
55766.0,STARLINK-5599,PAYLOAD,2023-04-30 02:19:57,15.69929954,0.0002975,69.9989,353.9873,275.7271,84.3585,-3.3272e-05,-4.212e-05,0.0,0 STARLINK-5599,1 55766U 23028AB  23120.09719361 -.00004212  00000-0 -33272-4 0  9990,2 55766  69.9989 353.9873 0002975 275.7271  84.3585 15.69929954  9666,6737.234,91.724,361.104,357.095,0.0
55766.0,STARLINK-5599,PAYLOAD,2023-04-30 17:37:29,15.69915211,0.000322,69.998,352.1961,275.3994,84.6834,8.8685e-06,8.53e-06,0.0,0 STARLINK-5599,1 55766U 23028AB  23120.73436707  .00000853  00000-0  88685-5 0  9995,2 55766  69.9980 352.1961 0003220 275.3994  84.6834 15.69915211  9760,6737.277,91.725,361.311,356.972,0.0
55766.0,STARLINK-5599,PAYLOAD,2023-05-01 01:16:14,15.69931996,0.0002889,69.9985,351.3003,277.5976,82.4892,-7.4426e-06,-1.108e-05,0.0,0 STARLINK-5599,1 55766U 23028AB  23121.05294547 -.00001108  00000-0 -74426-5 0  9999,2 55766  69.9985 351.3003 0002889 277.5976  82.4892 15.69931996  9811,6737.229,91.724,361.04,357.147,0.0
55766.0,STARLINK-5599,PAYLOAD,2023-05-01 18:05:30,15.69928191,0.0003201,69.9979,349.3295,273.4247,86.6583,1.096e-05,1.105e-05,0.0,0 STARLINK-5599,1 55766U 23028AB  23121.75382390  .00001105  00000-0  10960-4 0  9997,2 55766  69.9979 349.3295 0003201 273.4247  86.6583 15.69928191  9938,6737.239,91.724,361.261,356.948,0.0
55766.0,STARLINK-5599,PAYLOAD,2023-05-02 01:44:15,15.6993107,0.0003198,69.9977,348.4341,273.4679,86.6151,1.4027e-05,1.475e-05,0.0,0 STARLINK-5599,1 55766U 23028AB  23122.07240535  .00001475  00000-0  14027-4 0  9995,2 55766  69.9977 348.4341 0003198 273.4679  86.6151 15.69931070  9977,6737.231,91.724,361.251,356.942,0.0
55766.0,STARLINK-5599,PAYLOAD,2023-05-02 18:33:32,15.69920723,0.0003294,69.9984,346.4629,283.9353,76.1476,1.4524e-05,1.534e-05,0.0,0 STARLINK-5599,1 55766U 23028AB  23122.77329662  .00001534  00000-0  14524-4 0  9999,2 55766  69.9984 346.4629 0003294 283.9353  76.1476 15.69920723 10085,6737.261,91.724,361.345,356.907,0.0
55766.0,STARLINK-5599,PAYLOAD,2023-05-02 21:37:02,15.69928048,0.000325,69.997,346.1044,267.1058,92.9766,1.7949e-05,1.946e-05,0.0,0 STARLINK-5599,1 55766U 23028AB  23122.90072364  .00001946  00000-0  17949-4 0  9999,2 55766  69.9970 346.1044 0003250 267.1058  92.9766 15.69928048 10116,6737.24,91.724,361.294,356.915,0.0
